[{"OBJECT_NAME":"STARLINK-31328","OBJECT_ID":"2024-020E","EPOCH":"2026-03-09T22:45:44.672544","MEAN_MOTION":15.30221127,"ECCENTRICITY":9.287e-5,"INCLINATION":53.1605,"RA_OF_ASC_NODE":306.0129,"ARG_OF_PERICENTER":103.9985,"MEAN_ANOMALY":256.1119,"EPHEMERIS_TYPE":0,"CLASSIFICATION_TYPE":"U","NORAD_CAT_ID":58880,"ELEMENT_SET_NO":999,"REV_AT_EPOCH":11832,"BSTAR":0.00017324887,"MEAN_MOTION_DOT":4.779e-5,"MEAN_MOTION_DDOT":0},{"OBJECT_NAME":"CZ-4B DEB","OBJECT_ID":"1999-057H","EPOCH":"2026-03-09T17:25:29.363520","MEAN_MOTION":15.25756771,"ECCENTRICITY":0.00339549,"INCLINATION":98.6728,"RA_OF_ASC_NODE":149.1557,"ARG_OF_PERICENTER":175.409,"MEAN_ANOMALY":184.7463,"EPHEMERIS_TYPE":0,"CLASSIFICATION_TYPE":"U","NORAD_CAT_ID":26121,"ELEMENT_SET_NO":999,"REV_AT_EPOCH":41150,"BSTAR":0.00075758105,"MEAN_MOTION_DOT":0.00019602,"MEAN_MOTION_DDOT":0}]
